GALAXY 25               
1 24812C 97026A   22034.00000000  .00000088  00000-0  00000-0 0   348
2 24812   3.3584  85.0795 0003838 223.1276 251.0420  1.00270091    16
GALAXY 25               
1 24812C 97026A   22037.94508102  .00000088  00000-0  00000-0 0   373
2 24812   3.3682  84.9756 0003664 218.9688 239.4296  1.00270299    17
GALAXY 25           [PM]
1 24812C 97026A   22038.94453704  .00000088  00000-0  00000-0 0   382
2 24812   3.3712  84.9579 0003673 220.8467 238.3556  1.00270657    16
INTELSAT 5          [PM]
1 24916C 97046A   22023.00000000  .00000190  00000-0  00000-0 0   235
2 24916   6.9175  62.0694 0008212 174.2553 107.8046  1.00105390    15
INTELSAT 5              
1 24916C 97046A   22034.00000000  .00000209  00000-0  00000-0 0   340
2 24916   6.9413  62.0083 0005768 181.0848 105.8940  1.00120360    13
INTELSAT 5              
1 24916C 97046A   22037.94508102  .00000214  00000-0  00000-0 0   371
2 24916   6.9515  61.9535 0005843 187.0161  82.0443  1.00124218    14
GALAXY 11               
1 26038C 99071A   22034.00000000 -.00000072  00000-0  00000-0 0   346
2 26038   2.6737  89.5781 0000700  92.5002 217.9315  1.00269765    14
GALAXY 11               
1 26038C 99071A   22038.00000000 -.00000072  00000-0  00000-0 0   384
2 26038   2.6826  89.4533 0000834 127.4128 187.0879  1.00270897    12
INTELSAT 9              
1 26451C 00043A   22034.00000000 -.00000191  00000-0  00000-0 0   348
2 26451   6.9278  62.1446 0000846 163.8122 217.1508  1.00276049    10
INTELSAT 9              
1 26451C 00043A   22037.94508102 -.00000191  00000-0  00000-0 0   373
2 26451   6.9378  62.0977 0001045 171.7855 193.3501  1.00274591    10
INTELSAT 9          [PM]
1 26451C 00043A   22041.97224537 -.00000191  00000-0  00000-0 0   413
2 26451   6.9474  62.0831 0000793 200.3837 178.5041  1.00277222    12
INTELSAT 1R             
1 26608C 00072A   22034.00000000 -.00000047  00000-0  00000-0 0   344
2 26608   4.1069  81.3110 0001247 331.3819 237.5056  1.00271404    18
INTELSAT 1R             
1 26608C 00072A   22038.00000000 -.00000047  00000-0  00000-0 0   382
2 26608   4.1188  81.2093 0001110 317.6843 255.2485  1.00272799    13
INTELSAT 10             
1 26766C 01019A   22034.00000000  .00000127  00000-0  00000-0 0   349
2 26766   5.2608  74.5160 0003852 232.9057   3.4913  1.00271995    14
INTELSAT 10             
1 26766C 01019A   22037.94508102  .00000127  00000-0  00000-0 0   374
2 26766   5.2708  74.4441 0004341 241.6867 338.9024  1.00274952    11
INTELSAT 10         [PM]
1 26766C 01019A   22039.64238426  .00000127  00000-0  00000-0 0   394
2 26766   5.2758  74.4506 0003305 265.5675 207.7490  1.00269266    11
INTELSAT 901            
1 26824C 01024A   22034.00000000 -.00000108  00000-0  00000-0 0   340
2 26824   0.0510 270.8411 0000817  62.3269 132.4506  1.00269810    16
INTELSAT 901            
1 26824C 01024A   22037.94508102 -.00000112  00000-0  00000-0 0   370
2 26824   0.0482 273.2549 0001300  52.6838 123.8047  1.00271244    13
INTELSAT 902            
1 26900C 01039A   22034.00000000 -.00000192  00000-0  00000-0 0   344
2 26900   2.0695  90.5637 0002894 225.5372 126.9286  1.00271603    15
INTELSAT 902            
1 26900C 01039A   22037.94508102 -.00000192  00000-0  00000-0 0   379
2 26900   2.0792  90.4260 0003066 223.2708 113.4484  1.00276811    11
INTELSAT 902        [PM]
1 26900C 01039A   22039.61267361 -.00000192  00000-0  00000-0 0   396
2 26900   2.0838  90.3884 0003184 226.2944 352.4500  1.00273000    10
INTELSAT 904            
1 27380C 02007A   22034.00000000 -.00000123  00000-0  00000-0 0   347
2 27380   2.9024  87.4287 0002563 231.1658 145.0274  1.00271356    16
INTELSAT 904            
1 27380C 02007A   22037.94508102 -.00000123  00000-0  00000-0 0   372
2 27380   2.9122  87.3186 0002870 231.1950 129.2197  1.00273203    19
INTELSAT 904        [PM]
1 27380C 02007A   22044.34006944 -.00000123  00000-0  00000-0 0   449
2 27380   2.9317  74.6096 0003634 234.5495 287.0926  1.00273497    12
INTELSAT 905        [PM]
1 27438C 02027A   22031.75798611 -.00000094  00000-0  00000-0 0   318
2 27438   2.7209  88.2377 0002575 216.3540  74.7016  1.00271319    11
INTELSAT 905            
1 27438C 02027A   22034.00000000 -.00000094  00000-0  00000-0 0   340
2 27438   2.7248  88.2050 0002238 218.2204 162.1990  1.00272490    10
INTELSAT 905            
1 27438C 02027A   22037.94508102 -.00000094  00000-0  00000-0 0   375
2 27438   2.7345  88.0888 0002537 222.6878 141.9692  1.00272618    19
GALAXY 3C               
1 27445C 02030A   22034.00000000 -.00000064  00000-0  00000-0 0   349
2 27445   0.0028  23.3076 0001992 313.8627  60.9228  1.00267475    16
GALAXY 3C               
1 27445C 02030A   22038.00000000 -.00000158  00000-0  00000-0 0   381
2 27445   0.0182 340.8046 0002160 356.0325  65.1758  1.00266720    10
INTELSAT 906            
1 27513C 02041A   22034.00000000  .00000105  00000-0  00000-0 0   342
2 27513   1.7367  92.1918 0003279 237.1757 227.9090  1.00269946    14
INTELSAT 906            
1 27513C 02041A   22037.94508102  .00000105  00000-0  00000-0 0   377
2 27513   1.7463  92.0247 0003611 239.0395 210.3229  1.00272072    18
INTELSAT 906        [PM]
1 27513C 02041A   22044.53995370  .00000105  00000-0  00000-0 0   445
2 27513   1.7640  91.4042 0003628 235.5884  75.0655  1.00270665    18
GALAXY 12               
1 27715C 03013B   22034.00000000  .00000149  00000-0  00000-0 0   344
2 27715   2.9366  87.0141 0002109 230.3307  46.7756  1.00270273    19
GALAXY 12               
1 27715C 03013B   22037.94508102  .00000149  00000-0  00000-0 0   379
2 27715   2.9464  86.8982 0002471 233.9785  27.3649  1.00272720    14
GALAXY 12           [PM]
1 27715C 03013B   22039.57266204  .00000149  00000-0  00000-0 0   396
2 27715   2.9514  86.8802 0002319 249.1448 239.7609  1.00270040    15
GALAXY 23               
1 27854C 03034A   22034.00000000  .00000103  00000-0  00000-0 0   341
2 27854   0.0704 267.9773 0002849  45.6910  58.4608  1.00269398    18
GALAXY 23               
1 27854C 03034A   22037.94508102  .00000103  00000-0  00000-0 0   376
2 27854   0.0622 270.0494 0003109  44.8573  41.3272  1.00271209    10
GALAXY 23           [PM]
1 27854C 03034A   22045.59378472  .00000104  00000-0  00000-0 0   451
2 27854   0.0537 274.3278 0003305  50.9555 272.0437  1.00271431    11
GALAXY 13               
1 27954C 03044A   22034.00000000  .00000138  00000-0  00000-0 0   341
2 27954   0.0071 107.4557 0000889 115.1824 143.4753  1.00271805    15
GALAXY 13           [PM]
1 27954C 03044A   22036.57543982  .00000138  00000-0  00000-0 0   368
2 27954   0.0110  97.2414 0003389 104.5017  14.0717  1.00269013    12
GALAXY 13               
1 27954C 03044A   22037.94508102  .00000138  00000-0  00000-0 0   376
2 27954   0.0107  98.9387 0002612 107.4378 143.8580  1.00269586    19
INTELSAT 10-02          
1 28358C 04022A   22034.00000000  .00000076  00000-0  00000-0 0   348
2 28358   0.0585 269.3773 0000652  63.1935 159.5509  1.00269623    17
INTELSAT 10-02          
1 28358C 04022A   22038.00000000  .00000079  00000-0  00000-0 0   389
2 28358   0.0607 272.0713 0000793  28.0761 195.9120  1.00270716    18
GALAXY 28               
1 28702C 05022A   22034.00000000 -.00000145  00000-0  00000-0 0   340
2 28702   0.0370 286.6032 0002183  56.8221  60.6862  1.00271163    16
GALAXY 28               
1 28702C 05022A   22038.00000000 -.00000122  00000-0  00000-0 0   383
2 28702   0.0059 348.0933 0002578 354.0715  65.9080  1.00270670    14
GALAXY 28           [PM]
1 28702C 05022A   22041.15250000  .00000058  00000-0  00000-0 0   411
2 28702   0.0195 333.8598 0002027 354.7011 137.5106  1.00274113    10
GALAXY 14               
1 28790C 05030A   22034.00000000  .00000246  00000-0  00000-0 0   347
2 28790   0.9253  93.7976 0001750 228.5765 203.6485  1.00273071    16
GALAXY 14           [PM]
1 28790C 05030A   22037.77430556  .00000246  00000-0  00000-0 0   370
2 28790   0.9336  93.5508 0002144 215.7775 139.1681  1.00269738    10
GALAXY 14               
1 28790C 05030A   22037.94508102  .00000246  00000-0  00000-0 0   372
2 28790   0.9343  93.5416 0002143 218.1219 198.4791  1.00269848    17
GALAXY 15               
1 28884C 05041A   22034.00000000  .00000042  00000-0  00000-0 0   347
2 28884   0.0187 315.6928 0001590 349.7440  54.6824  1.00269956    16
GALAXY 15               
1 28884C 05041A   22037.94508102  .00000169  00000-0  00000-0 0   372
2 28884   0.0221 333.9405 0001898 335.0197  35.2710  1.00272981    17
GALAXY 15           [PM]
1 28884C 05041A   22040.40881944  .00000169  00000-0  00000-0 0   409
2 28884   0.0423 280.0883 0001879  33.2665 200.2674  1.00270452    13
GALAXY 16               
1 29236C 06023A   22034.00000000 -.00000034  00000-0  00000-0 0   342
2 29236   0.0038 122.2361 0002624 198.1945  73.6887  1.00277010    11
GALAXY 16               
1 29236C 06023A   22037.94508102 -.00000109  00000-0  00000-0 0   370
2 29236   0.0001 148.3638 0002849 164.9679  64.9035  1.00272188    10
GALAXY 16           [PM]
1 29236C 06023A   22040.99521991 -.00000036  00000-0  00000-0 0   403
2 29236   0.0019 100.8686 0002910 212.9286  85.4981  1.00271722    13
GALAXY 17               
1 31307C 07016B   22034.00000000 -.00000242  00000-0  00000-0 0   348
2 31307   0.0422 283.2828 0002919  29.7120  89.1267  1.00271685    13
GALAXY 17               
1 31307C 07016B   22037.94508102 -.00000084  00000-0  00000-0 0   377
2 31307   0.0115  41.6886 0003308 276.0174  68.5313  1.00271676    14
GALAXY 17           [PM]
1 31307C 07016B   22040.98319444 -.00000084  00000-0  00000-0 0   408
2 31307   0.0153  58.4646 0003373 261.8502  82.6375  1.00273931    16
INTELSAT 11             
1 32253C 07044B   22034.00000000 -.00000228  00000-0  00000-0 0   344
2 32253   0.0033 165.9763 0001534 140.7721 143.3833  1.00271869    15
